[{"OBJECT_NAME":"DONGPO 10","OBJECT_ID":"2022-167H","EPOCH":"2026-03-09T22:44:56.137344","MEAN_MOTION":15.322785,"ECCENTRICITY":0.00061655,"INCLINATION":97.685,"RA_OF_ASC_NODE":235.0962,"ARG_OF_PERICENTER":106.9526,"MEAN_ANOMALY":253.2392,"EPHEMERIS_TYPE":0,"CLASSIFICATION_TYPE":"U","NORAD_CAT_ID":54689,"ELEMENT_SET_NO":999,"REV_AT_EPOCH":18015,"BSTAR":0.00049390523,"MEAN_MOTION_DOT":0.00015333,"MEAN_MOTION_DDOT":0},{"OBJECT_NAME":"STARLINK-34552","OBJECT_ID":"2025-144H","EPOCH":"2026-03-09T14:48:10.593792","MEAN_MOTION":15.30186444,"ECCENTRICITY":0.0001213,"INCLINATION":53.1592,"RA_OF_ASC_NODE":181.1704,"ARG_OF_PERICENTER":73.7979,"MEAN_ANOMALY":286.3155,"EPHEMERIS_TYPE":0,"CLASSIFICATION_TYPE":"U","NORAD_CAT_ID":64731,"ELEMENT_SET_NO":999,"REV_AT_EPOCH":3970,"BSTAR":0.0012103,"MEAN_MOTION_DOT":0.00035644,"MEAN_MOTION_DDOT":0}]
